[
  {
    "name": "UMKA 1 (RS40S)",
    "line1": "1 57172U 23091G   26171.38369249  .00005161  00000+0  23636-3 0  9993",
    "line2": "2 57172  97.5046 230.0688 0014343 107.7929 252.4872 15.20848788164497"
  },
  {
    "name": "CUBESX-HSE 3 (RS42S)",
    "line1": "1 57178U 23091N   26171.44125536  .00011017  00000+0  36631-3 0  9991",
    "line2": "2 57178  97.5086 237.0698 0011948  84.7993 275.4611 15.31283284164928"
  },
  {
    "name": "MONITOR-3 (RS58S)",
    "line1": "1 57180U 23091Q   26171.40744497  .00008680  00000+0  32073-3 0  9991",
    "line2": "2 57180  97.5078 234.8773 0013041  90.9319 269.3415 15.27895465164781"
  },
  {
    "name": "MONITOR-4 (RS57S)",
    "line1": "1 57182U 23091S   26171.45181046  .00008870  00000+0  32683-3 0  9991",
    "line2": "2 57182  97.5073 234.8934 0013052  91.1607 269.1128 15.27982067164797"
  },
  {
    "name": "MONITOR-2 (RS39S)",
    "line1": "1 57184U 23091U   26171.40896110  .00003706  00000+0  18040-3 0  9997",
    "line2": "2 57184  97.5068 229.6713 0012781 101.4051 258.8619 15.18935296164440"
  },
  {
    "name": "SVYATOBOR 1 (RS60S)",
    "line1": "1 57187U 23091X   26171.40216926  .00007736  00000+0  29726-3 0  9991",
    "line2": "2 57187  97.5084 235.2372 0010816  84.9279 275.3193 15.26660865164806"
  },
  {
    "name": "VIZARD-METEO (RS38S)",
    "line1": "1 57189U 23091Z   26171.46992765  .00014554  00000+0  41535-3 0  9999",
    "line2": "2 57189  97.5086 241.0213 0008064  68.0251 292.1849 15.36113853165193"
  },
  {
    "name": "GLOBAL-19",
    "line1": "1 55982U 23041B   26170.50127743  .00009023  00000+0  24203-3 0  9991",
    "line2": "2 55982  42.0000 188.3911 0008333  19.0119 341.1030 15.38063484182281"
  },
  {
    "name": "BRO-9",
    "line1": "1 56185U 23054H   26172.11223700  .01436425  16424-2  10915-2 0  9995",
    "line2": "2 56185  97.2886  91.0903 0009706 181.5698 178.5560 16.15496297179727"
  },
  {
    "name": "ION SCV-010",
    "line1": "1 56192U 23054Q   26171.43817016  .00003796  00000+0  14921-3 0  9998",
    "line2": "2 56192  97.3774  60.8979 0012536 185.1219 174.9893 15.26219225176690"
  },
  {
    "name": "BLACKJACK ACES-3",
    "line1": "1 56950U 23084U   26171.39908932  .00004401  00000+0  21680-3 0  9990",
    "line2": "2 56950  97.6216 306.6139 0002315  29.7360 330.4005 15.18496081167657"
  },
  {
    "name": "BLACKJACK ACES-2",
    "line1": "1 56955U 23084Z   26171.40515108  .00005498  00000+0  26982-3 0  9993",
    "line2": "2 56955  97.6213 306.7051 0000739  86.7514 273.3804 15.18510731167667"
  },
  {
    "name": "BLACKJACK ACES-1",
    "line1": "1 56956U 23084AA  26171.39296321  .00006047  00000+0  29663-3 0  9995",
    "line2": "2 56956  97.6207 306.4669 0000970 120.6651 239.4679 15.18486085117381"
  },
  {
    "name": "ION SCV-011",
    "line1": "1 56957U 23084AB  26171.40422517  .00004436  00000+0  16117-3 0  9996",
    "line2": "2 56957  98.1385 358.9811 0007776  35.7758 324.3999 15.28872584166300"
  },
  {
    "name": "GHOST-3",
    "line1": "1 56958U 23084AC  26171.39574054  .00015223  00000+0  29314-3 0  9998",
    "line2": "2 56958  97.6222 320.1396 0005506 279.5913  80.4714 15.47969266168519"
  },
  {
    "name": "TOMORROW-R2",
    "line1": "1 56962U 23084AG  26171.39987211  .00723063  30193-3  64697-3 0  9997",
    "line2": "2 56962  97.6046 336.1347 0009077 244.4625 115.5721 16.12783982169576"
  },
  {
    "name": "2023-091H",
    "line1": "1 57173U 23091H   26171.45589882  .00009895  00000+0  35662-3 0  9999",
    "line2": "2 57173  97.5043 234.6745 0011289 103.3158 256.9341 15.28696009164801"
  },
  {
    "name": "2023-091J",
    "line1": "1 57174U 23091J   26171.42704837  .00003115  00000+0  17507-3 0  9993",
    "line2": "2 57174  97.5051 224.4774 0014554 132.8132 227.4326 15.13945321164126"
  },
  {
    "name": "CUBEBEL 2 (EU11S)",
    "line1": "1 57175U 23091K   26171.45565892  .00011356  00000+0  40231-3 0  9999",
    "line2": "2 57175  97.5045 234.7019 0011300 104.9308 255.3184 15.29219854164806"
  },
  {
    "name": "SITRO-AIS 5 (KATYS)",
    "line1": "1 57176U 23091L   26171.40658515  .00010175  00000+0  35736-3 0  9992",
    "line2": "2 57176  97.5056 235.3369 0012707  93.5424 266.7269 15.29518602164834"
  },
  {
    "name": "ZORKIY-2M 1",
    "line1": "1 57177U 23091M   26171.43569176  .00005960  00000+0  27165-3 0  9993",
    "line2": "2 57177  97.5085 230.3908 0014854 105.1102 255.1777 15.20938851164490"
  },
  {
    "name": "HORS 1",
    "line1": "1 57188U 23091Y   26171.45302358  .00007933  00000+0  30382-3 0  9991",
    "line2": "2 57188  97.5061 235.0502 0010276  84.8213 275.4198 15.26769493164816"
  }
]