OBJECT_NAME,OBJECT_ID,EPOCH,MEAN_MOTION,ECCENTRICITY,INCLINATION,RA_OF_ASC_NODE,ARG_OF_PERICENTER,MEAN_ANOMALY,EPHEMERIS_TYPE,CLASSIFICATION_TYPE,NORAD_CAT_ID,ELEMENT_SET_NO,REV_AT_EPOCH,BSTAR,MEAN_MOTION_DOT,MEAN_MOTION_DDOT
GLOBAL-19,2023-041B,2026-06-19T12:01:50.369952,15.38063484,.00083333,42.0000,188.3911,19.0119,341.1030,0,U,55982,999,18228,.24203159E-3,.9023E-4,0
BRO-9,2023-054H,2026-06-21T02:41:37.276800,16.15496297,.0009706,97.2886,91.0903,181.5698,178.5560,0,U,56185,999,17972,.10915E-2,.1436425E-1,.16424E-2
ION SCV-010,2023-054Q,2026-06-20T10:30:57.901824,15.26219225,.0012536,97.3774,60.8979,185.1219,174.9893,0,U,56192,999,17669,.14921E-3,.3796E-4,0
BLACKJACK ACES-3,2023-084U,2026-06-20T09:34:41.317248,15.18496081,.0002315,97.6216,306.6139,29.7360,330.4005,0,U,56950,999,16765,.2168E-3,.4401E-4,0
BLACKJACK ACES-2,2023-084Z,2026-06-20T09:43:25.053312,15.18510731,.0000739,97.6213,306.7051,86.7514,273.3804,0,U,56955,999,16766,.26982E-3,.5498E-4,0
BLACKJACK ACES-1,2023-084AA,2026-06-20T09:25:52.021344,15.18486085,.000097,97.6207,306.4669,120.6651,239.4679,0,U,56956,999,11738,.29663E-3,.6047E-4,0
ION SCV-011,2023-084AB,2026-06-20T09:42:05.054688,15.28872584,.0007776,98.1385,358.9811,35.7758,324.3999,0,U,56957,999,16630,.16117E-3,.4436E-4,0
GHOST-3,2023-084AC,2026-06-20T09:29:51.982656,15.47969266,.0005506,97.6222,320.1396,279.5913,80.4714,0,U,56958,999,16851,.29314E-3,.15223E-3,0
TOMORROW-R2,2023-084AG,2026-06-20T09:35:48.950304,16.12783982,.0009077,97.6046,336.1347,244.4625,115.5721,0,U,56962,999,16957,.64697E-3,.723063E-2,.30193E-3
UMKA 1 (RS40S),2023-091G,2026-06-20T09:12:31.031136,15.20848788,.0014343,97.5046,230.0688,107.7929,252.4872,0,U,57172,999,16449,.23636E-3,.5161E-4,0
2023-091H,2023-091H,2026-06-20T10:56:29.658048,15.28696009,.0011289,97.5043,234.6745,103.3158,256.9341,0,U,57173,999,16480,.35662E-3,.9895E-4,0
2023-091J,2023-091J,2026-06-20T10:14:56.979168,15.13945321,.0014554,97.5051,224.4774,132.8132,227.4326,0,U,57174,999,16412,.17507E-3,.3115E-4,0
CUBEBEL 2 (EU11S),2023-091K,2026-06-20T10:56:08.930688,15.29219854,.00113,97.5045,234.7019,104.9308,255.3184,0,U,57175,999,16480,.40231E-3,.11356E-3,0
SITRO-AIS 5 (KATYS),2023-091L,2026-06-20T09:45:28.956960,15.29518602,.0012707,97.5056,235.3369,93.5424,266.7269,0,U,57176,999,16483,.35736E-3,.10175E-3,0
ZORKIY-2M 1,2023-091M,2026-06-20T10:27:23.768064,15.20938851,.0014854,97.5085,230.3908,105.1102,255.1777,0,U,57177,999,16449,.27165E-3,.596E-4,0
CUBESX-HSE 3 (RS42S),2023-091N,2026-06-20T10:35:24.463104,15.31283284,.0011948,97.5086,237.0698,84.7993,275.4611,0,U,57178,999,16492,.36631E-3,.11017E-3,0
MONITOR-3 (RS58S),2023-091Q,2026-06-20T09:46:43.245408,15.27895465,.0013041,97.5078,234.8773,90.9319,269.3415,0,U,57180,999,16478,.32073E-3,.868E-4,0
MONITOR-4 (RS57S),2023-091S,2026-06-20T10:50:36.423744,15.27982067,.0013052,97.5073,234.8934,91.1607,269.1128,0,U,57182,999,16479,.32683E-3,.887E-4,0
MONITOR-2 (RS39S),2023-091U,2026-06-20T09:48:54.239040,15.18935296,.0012781,97.5068,229.6713,101.4051,258.8619,0,U,57184,999,16444,.1804E-3,.3706E-4,0
SVYATOBOR 1 (RS60S),2023-091X,2026-06-20T09:39:07.424064,15.26660865,.0010816,97.5084,235.2372,84.9279,275.3193,0,U,57187,999,16480,.29726E-3,.7736E-4,0
HORS 1,2023-091Y,2026-06-20T10:52:21.237312,15.26769493,.0010276,97.5061,235.0502,84.8213,275.4198,0,U,57188,999,16481,.30382E-3,.7933E-4,0
VIZARD-METEO (RS38S),2023-091Z,2026-06-20T11:16:41.748960,15.36113853,.0008064,97.5086,241.0213,68.0251,292.1849,0,U,57189,999,16519,.41535E-3,.14554E-3,0
